TIANHE
1 48274U 21035A   22203.52579450  .00014752  00000+0  17183-3 0  9993
2 48274  41.4725   3.7377 0007065 264.1333 207.5949 15.61347096 70293
